H1 CPF  1  DLR 2022 08 15 10  7272 technosat            
H2  1704205 6203    42829 2022 08 15 00 00 00 2022 08 22 00 00 00    60 1 1  0 0 0
H9
10 0 59812  79200.000000  0       4812467.064      -3990835.908      -3083458.701
10 0 59812  79260.000000  0       4591322.095      -3926540.368      -3479731.169
10 0 59812  79320.000000  0       4351480.298      -3843687.614      -3861239.303
10 0 59812  79380.000000  0       4094127.465      -3742480.607      -4226376.807
10 0 59812  79440.000000  0       3820519.593      -3623209.883      -4573609.479
10 0 59812  79500.000000  0       3531976.480      -3486252.583      -4901481.462
10 0 59812  79560.000000  0       3229875.128      -3332071.081      -5208621.077
10 0 59812  79620.000000  0       2915642.972      -3161211.225      -5493746.217
10 0 59812  79680.000000  0       2590751.006      -2974300.247      -5755669.303
10 0 59812  79740.000000  0       2256706.847      -2772044.318      -5993301.845
10 0 59812  79800.000000  0       1915047.698      -2555225.756      -6205658.653
10 0 59812  79860.000000  0       1567333.235      -2324699.828      -6391861.594
10 0 59812  79920.000000  0       1215138.449      -2081391.194      -6551142.837
10 0 59812  79980.000000  0        860046.565      -1826290.065      -6682847.563
10 0 59812  80040.000000  0        503642.051      -1560448.139      -6786436.252
10 0 59812  80100.000000  0        147503.669      -1284974.261      -6861486.552
10 0 59812  80160.000000  0       -206802.332      -1001029.803      -6907694.637
10 0 59812  80220.000000  0       -557728.843       -709823.874      -6924876.197
10 0 59812  80280.000000  0       -903754.473       -412608.288      -6912967.041
10 0 59812  80340.000000  0      -1243389.969       -110672.289      -6872023.176
10 0 59812  80400.000000  0      -1575184.416        194662.884      -6802220.460
10 0 59812  80460.000000  0      -1897731.218        502049.593      -6703853.841
10 0 59812  80520.000000  0      -2209673.858        810119.575      -6577336.188
10 0 59812  80580.000000  0      -2509711.410       1117489.851      -6423196.689
10 0 59812  80640.000000  0      -2796603.817       1422768.725      -6242078.830
10 0 59812  80700.000000  0      -3069176.920       1724561.899      -6034737.993
10 0 59812  80760.000000  0      -3326327.221       2021478.696      -5802038.645
10 0 59812  80820.000000  0      -3567026.385       2312138.359      -5544951.078
10 0 59812  80880.000000  0      -3790325.416       2595176.383      -5264547.691
10 0 59812  80940.000000  0      -3995358.493       2869250.855      -4961998.814
10 0 59812  81000.000000  0      -4181346.430       3133048.757      -4638568.126
10 0 59812  81060.000000  0      -4347599.726       3385292.206      -4295607.678
10 0 59812  81120.000000  0      -4493521.217       3624744.645      -3934552.575
10 0 59812  81180.000000  0      -4618608.362       3850216.934      -3556915.306
10 0 59812  81240.000000  0      -4722455.156       4060573.305      -3164279.653
10 0 59812  81300.000000  0      -4804753.579       4254737.128      -2758294.213
10 0 59812  81360.000000  0      -4865294.539       4431696.422      -2340665.646
10 0 59812  81420.000000  0      -4903968.449       4590509.195      -1913151.690
10 0 59812  81480.000000  0      -4920765.342       4730308.527      -1477553.788
10 0 59812  81540.000000  0      -4915774.486       4850307.280      -1035709.512
10 0 59812  81600.000000  0      -4889183.571       4949802.546       -589484.766
10 0 59812  81660.000000  0      -4841277.310       5028179.695       -140765.742
10 0 59812  81720.000000  0      -4772435.544       5084915.981        308549.108
10 0 59812  81780.000000  0      -4683131.113       5119583.752        756557.224
10 0 59812  81840.000000  0      -4573927.164       5131853.228       1201360.276
10 0 59812  81900.000000  0      -4445473.932       5121494.770       1641072.422
10 0 59812  81960.000000  0      -4298505.121       5088380.652       2073828.496
10 0 59812  82020.000000  0      -4133833.910       5032486.364       2497792.091
10 0 59812  82080.000000  0      -3952348.585       4953891.417       2911163.512
10 0 59812  82140.000000  0      -3755007.823       4852779.661       3312187.551
10 0 59812  82200.000000  0      -3542835.685       4729439.078       3699161.030
10 0 59812  82260.000000  0      -3316916.380       4584261.105       4070440.140
10 0 59812  82320.000000  0      -3078388.712       4417739.467       4424447.530
10 0 59812  82380.000000  0      -2828440.287       4230468.477       4759679.067
10 0 59812  82440.000000  0      -2568301.575       4023140.861       5074710.244
10 0 59812  82500.000000  0      -2299239.796       3796545.095       5368202.232
10 0 59812  82560.000000  0      -2022552.685       3551562.312       5638907.525
10 0 59812  82620.000000  0      -1739562.172       3289162.767       5885675.180
10 0 59812  82680.000000  0      -1451608.013       3010401.896       6107455.623
10 0 59812  82740.000000  0      -1160041.384       2716415.915       6303305.016
10 0 59812  82800.000000  0       -866218.549       2408417.096       6472389.061
10 0 59812  82860.000000  0       -571494.615       2087688.798       6613986.491
10 0 59812  82920.000000  0       -277217.270       1755580.077       6727492.172
10 0 59812  82980.000000  0         15279.435       1413499.924       6812419.629
10 0 59812  83040.000000  0        304681.142       1062911.267       6868403.046
10 0 59812  83100.000000  0        589699.111        705324.737       6895198.826
10 0 59812  83160.000000  0        869075.955        342292.192       6892686.677
10 0 59812  83220.000000  0       1141591.215        -24600.007       6860870.255
10 0 59812  83280.000000  0       1406066.734       -393737.938       6799877.308
10 0 59812  83340.000000  0       1661371.825       -763487.287       6709959.283
10 0 59812  83400.000000  0       1906428.155      -1132200.582       6591490.362
10 0 59812  83460.000000  0       2140214.385      -1498224.532       6444966.149
10 0 59812  83520.000000  0       2361770.567      -1859907.548       6271001.829
10 0 59812  83580.000000  0       2570202.229      -2215607.326       6070329.761
10 0 59812  83640.000000  0       2764684.148      -2563698.398       5843796.546
10 0 59812  83700.000000  0       2944463.752      -2902579.708       5592359.649
10 0 59812  83760.000000  0       3108864.162      -3230682.162       5317083.528
10 0 59812  83820.000000  0       3257286.886      -3546476.094       5019135.266
10 0 59812  83880.000000  0       3389214.149      -3848478.586       4699779.775
10 0 59812  83940.000000  0       3504210.864      -4135260.730       4360374.526
10 0 59812  84000.000000  0       3601926.139      -4405454.670       4002363.735
10 0 59812  84060.000000  0       3682094.320      -4657760.338       3627272.201
10 0 59812  84120.000000  0       3744535.662      -4890951.982       3236698.781
10 0 59812  84180.000000  0       3789156.574      -5103884.379       2832309.427
10 0 59812  84240.000000  0       3815949.381      -5295498.674       2415829.902
10 0 59812  84300.000000  0       3824991.669      -5464827.832       1989038.213
10 0 59812  84360.000000  0       3816445.203      -5611001.681       1553756.753
10 0 59812  84420.000000  0       3790554.370      -5733251.458       1111844.179
10 0 59812  84480.000000  0       3747644.192      -5830913.791        665187.192
10 0 59812  84540.000000  0       3688118.026      -5903434.276        215692.264
10 0 59812  84600.000000  0       3612454.888      -5950370.611       -234722.883
10 0 59812  84660.000000  0       3521206.290      -5971395.058       -684137.928
10 0 59812  84720.000000  0       3414992.667      -5966296.261      -1130638.506
10 0 59812  84780.000000  0       3294499.516      -5934980.496      -1572324.614
10 0 59812  84840.000000  0       3160473.312      -5877472.409      -2007318.931
10 0 59812  84900.000000  0       3013717.103      -5793915.177      -2433775.085
10 0 59812  84960.000000  0       2855085.815      -5684570.016      -2849885.714
10 0 59812  85020.000000  0       2685481.373      -5549815.089      -3253890.274
10 0 59812  85080.000000  0       2505847.611      -5390143.880      -3644082.571
10 0 59812  85140.000000  0       2317165.002      -5206162.987      -4018817.948
10 0 59812  85200.000000  0       2120445.301      -4998589.406      -4376520.094
10 0 59812  85260.000000  0       1916726.148      -4768247.313      -4715687.501
10 0 59812  85320.000000  0       1707065.643      -4516064.385      -5034899.525
10 0 59812  85380.000000  0       1492536.916      -4243067.701      -5332822.066
10 0 59812  85440.000000  0       1274222.679      -3950379.193      -5608212.832
10 0 59812  85500.000000  0       1053209.817      -3639210.727      -5859926.144
10 0 59812  85560.000000  0        830584.042      -3310858.820      -6086917.310
10 0 59812  85620.000000  0        607424.640      -2966699.034      -6288246.543
10 0 59812  85680.000000  0        384799.339      -2608180.037      -6463082.454
10 0 59812  85740.000000  0        163759.336      -2236817.396      -6610705.068
10 0 59812  85800.000000  0        -54665.523      -1854187.108      -6730508.388
10 0 59812  85860.000000  0       -269471.374      -1461918.937      -6822002.528
10 0 59812  85920.000000  0       -479684.767      -1061689.514      -6884815.407
10 0 59812  85980.000000  0       -684366.901       -655215.273      -6918693.977
10 0 59812  86040.000000  0       -882617.682       -244245.243      -6923505.006
10 0 59812  86100.000000  0      -1073579.546        169446.266      -6899235.393
10 0 59812  86160.000000  0      -1256441.035        584067.056      -6845992.109
10 0 59812  86220.000000  0      -1430440.122        997814.599      -6764001.741
10 0 59812  86280.000000  0      -1594867.251       1408883.673      -6653609.498
10 0 59812  86340.000000  0      -1749068.111       1815473.920      -6515277.836
99
